NORAD_CAT_ID,OBJECT_NAME,OBJECT_TYPE,EPOCH,MEAN_MOTION,ECCENTRICITY,INCLINATION,RA_OF_ASC_NODE,ARG_OF_PERICENTER,MEAN_ANOMALY,BSTAR,MEAN_MOTION_DOT,MEAN_MOTION_DDOT,TLE_LINE0,TLE_LINE1,TLE_LINE2,SEMIMAJOR_AXIS,PERIOD,APOGEE,PERIGEE,DECAYED
49155.0,STARLINK-3060,PAYLOAD,2024-01-23 11:29:13,14.98334097,0.0002858,69.9997,51.5624,269.9828,90.1004,8.2145e-05,8.87e-06,0.0,0 STARLINK-3060,1 49155U 21082AB  24023.47863050  .00000887  00000-0  82145-4 0  9998,2 49155  69.9997  51.5624 0002858 269.9828  90.1004 14.98334097131776,6950.18,96.107,574.032,570.059,0.0
49155.0,STARLINK-3060,PAYLOAD,2024-01-24 03:30:34,14.98329527,0.0002811,69.9997,49.8794,270.1815,89.9021,4.9141e-06,-3.4e-07,0.0,0 STARLINK-3060,1 49155U 21082AB  24024.14623455 -.00000034  00000-0  49141-5 0  9991,2 49155  69.9997  49.8794 0002811 270.1815  89.9021 14.98329527131871,6950.194,96.107,574.013,570.106,0.0
49155.0,STARLINK-3060,PAYLOAD,2024-01-24 11:31:14,14.9832997,0.0002813,69.9998,49.0377,269.8589,90.2248,1.085e-05,3.6e-07,0.0,0 STARLINK-3060,1 49155U 21082AB  24024.48003462  .00000036  00000-0  10850-4 0  9993,2 49155  69.9998  49.0377 0002813 269.8589  90.2248 14.98329970131920,6950.193,96.107,574.013,570.103,0.0
49155.0,STARLINK-3060,PAYLOAD,2024-01-25 03:32:35,14.9833431,0.0002781,69.9999,47.3551,262.2726,97.8117,2.5318e-05,2.09e-06,0.0,0 STARLINK-3060,1 49155U 21082AB  24025.14763049  .00000209  00000-0  25318-4 0  9998,2 49155  69.9999  47.3551 0002781 262.2726  97.8117 14.98334310132024,6950.18,96.107,573.977,570.112,0.0
49155.0,STARLINK-3060,PAYLOAD,2024-01-25 11:33:15,14.98334275,0.0002792,69.9998,46.5131,264.5971,95.487,2.6318e-05,2.21e-06,0.0,0 STARLINK-3060,1 49155U 21082AB  24025.48143008  .00000221  00000-0  26318-4 0  9997,2 49155  69.9998  46.5131 0002792 264.5971  95.4870 14.98334275132072,6950.18,96.107,573.985,570.104,0.0
49155.0,STARLINK-3060,PAYLOAD,2024-01-26 03:34:36,14.98327884,0.0002779,69.9998,44.8297,264.952,95.1321,3.9689e-05,3.81e-06,0.0,0 STARLINK-3060,1 49155U 21082AB  24026.14903286  .00000381  00000-0  39689-4 0  9995,2 49155  69.9998  44.8297 0002779 264.9520  95.1321 14.98327884132172,6950.199,96.107,573.996,570.133,0.0
49155.0,STARLINK-3060,PAYLOAD,2024-01-26 11:35:16,14.98329412,0.0002753,69.9999,43.988,263.6426,96.4419,5.6216e-05,5.78e-06,0.0,0 STARLINK-3060,1 49155U 21082AB  24026.48283217  .00000578  00000-0  56216-4 0  9990,2 49155  69.9999  43.9880 0002753 263.6426  96.4419 14.98329412132221,6950.195,96.107,573.973,570.146,0.0
49155.0,STARLINK-3060,PAYLOAD,2024-01-27 03:36:37,14.98329885,0.0002683,70.0,42.3047,260.6136,99.4719,9.6186e-07,-8.1e-07,0.0,0 STARLINK-3060,1 49155U 21082AB  24027.15043322 -.00000081  00000-0  96186-6 0  9998,2 49155  70.0000  42.3047 0002683 260.6136  99.4719 14.98329885132323,6950.193,96.107,573.923,570.194,0.0
49155.0,STARLINK-3060,PAYLOAD,2024-01-27 10:01:09,14.98329097,0.0002705,70.0,41.6313,261.1855,98.8997,-8.3757e-06,-1.93e-06,0.0,0 STARLINK-3060,1 49155U 21082AB  24027.41747427 -.00000193  00000-0 -83757-5 0  9998,2 49155  70.0000  41.6313 0002705 261.1855  98.8997 14.98329097132360,6950.196,96.107,573.941,570.181,0.0
49155.0,STARLINK-3060,PAYLOAD,2024-01-28 05:14:46,14.98330772,0.0002804,69.9999,39.6112,259.3033,100.7811,3.8493e-05,3.66e-06,0.0,0 STARLINK-3060,1 49155U 21082AB  24028.21859108  .00000366  00000-0  38493-4 0  9993,2 49155  69.9999  39.6112 0002804 259.3033 100.7811 14.98330772132488,6950.191,96.107,574.004,570.107,0.0
49155.0,STARLINK-3060,PAYLOAD,2024-01-28 10:03:10,14.98331318,0.0002791,70.0001,39.1064,259.2344,100.8501,4.3833e-05,4.3e-06,0.0,0 STARLINK-3060,1 49155U 21082AB  24028.41887066  .00000430  00000-0  43833-4 0  9995,2 49155  70.0001  39.1064 0002791 259.2344 100.8501 14.98331318132513,6950.189,96.107,573.994,570.114,0.0
49155.0,STARLINK-3060,PAYLOAD,2024-01-29 10:05:11,14.98330619,0.0002831,70.0,36.581,262.8339,97.2498,4.8324e-05,4.84e-06,0.0,0 STARLINK-3060,1 49155U 21082AB  24029.42027109  .00000484  00000-0  48324-4 0  9990,2 49155  70.0000  36.5810 0002831 262.8339  97.2498 14.98330619132664,6950.191,96.107,574.024,570.088,0.0
49155.0,STARLINK-3060,PAYLOAD,2024-01-30 10:07:12,14.98334121,0.0002802,70.0002,34.0561,263.0633,97.0207,5.0063e-05,5.04e-06,0.0,0 STARLINK-3060,1 49155U 21082AB  24030.42166707  .00000504  00000-0  50063-4 0  9996,2 49155  70.0002  34.0561 0002802 263.0633  97.0207 14.98334121132815,6950.18,96.107,573.993,570.098,0.0
49155.0,STARLINK-3060,PAYLOAD,2024-01-31 10:09:13,14.98329795,0.000283,70.0001,31.5314,264.1626,95.9211,4.0103e-06,-4.5e-07,0.0,0 STARLINK-3060,1 49155U 21082AB  24031.42306991 -.00000045  00000-0  40103-5 0  9994,2 49155  70.0001  31.5314 0002830 264.1626  95.9211 14.98329795132966,6950.194,96.107,574.025,570.092,0.0
49155.0,STARLINK-3060,PAYLOAD,2024-01-31 22:58:17,14.98330747,0.0002786,70.0003,30.1847,267.159,92.925,-1.0874e-05,-2.23e-06,0.0,0 STARLINK-3060,1 49155U 21082AB  24031.95714980 -.00000223  00000-0 -10874-4 0  9993,2 49155  70.0003  30.1847 0002786 267.1590  92.9250 14.98330747133046,6950.191,96.107,573.992,570.119,0.0
49155.0,STARLINK-3060,PAYLOAD,2024-02-01 10:11:14,14.98329955,0.0002769,70.0003,29.0056,268.3974,91.6867,-1.0496e-05,-2.18e-06,0.0,0 STARLINK-3060,1 49155U 21082AB  24032.42447034 -.00000218  00000-0 -10496-4 0  9993,2 49155  70.0003  29.0056 0002769 268.3974  91.6867 14.98329955133112,6950.193,96.107,573.983,570.134,0.0
49155.0,STARLINK-3060,PAYLOAD,2024-02-02 08:37:06,14.98331891,0.0002817,70.0001,26.6487,267.2831,92.8005,6.253e-05,6.53e-06,0.0,0 STARLINK-3060,1 49155U 21082AB  24033.35910635  .00000653  00000-0  62530-4 0  9995,2 49155  70.0001  26.6487 0002817 267.2831  92.8005 14.98331891133259,6950.187,96.107,574.01,570.094,0.0
49155.0,STARLINK-3060,PAYLOAD,2024-02-03 03:50:43,14.9832755,0.0002816,70.0002,24.6284,267.2136,92.87,1.4123e-05,7.6e-07,0.0,0 STARLINK-3060,1 49155U 21082AB  24034.16023038  .00000076  00000-0  14123-4 0  9991,2 49155  70.0002  24.6284 0002816 267.2136  92.8700 14.98327550133372,6950.2,96.107,574.023,570.108,0.0
49155.0,STARLINK-3060,PAYLOAD,2024-02-03 08:39:08,14.98328131,0.0002802,70.0003,24.1235,266.7171,93.3667,2.1209e-05,1.6e-06,0.0,0 STARLINK-3060,1 49155U 21082AB  24034.36051026  .00000160  00000-0  21209-4 0  9998,2 49155  70.0003  24.1235 0002802 266.7171  93.3667 14.98328131133400,6950.199,96.107,574.011,570.116,0.0
49155.0,STARLINK-3060,PAYLOAD,2024-02-04 03:52:44,14.98331468,0.00028,70.0005,22.1043,260.0103,100.0741,-3.3943e-06,-1.33e-06,0.0,0 STARLINK-3060,1 49155U 21082AB  24035.16162811 -.00000133  00000-0 -33943-5 0  9993,2 49155  70.0005  22.1043 0002800 260.0103 100.0741 14.98331468133526,6950.188,96.107,573.999,570.107,0.0
49155.0,STARLINK-3060,PAYLOAD,2024-02-04 08:41:08,14.98333561,0.0002796,70.0005,21.599,261.7245,98.3597,2.263e-05,1.77e-06,0.0,0 STARLINK-3060,1 49155U 21082AB  24035.36190617  .00000177  00000-0  22630-4 0  9996,2 49155  70.0005  21.5990 0002796 261.7245  98.3597 14.98333561133556,6950.182,96.107,573.99,570.104,0.0
49155.0,STARLINK-3060,PAYLOAD,2024-02-05 03:54:46,14.98318598,0.0002646,70.001,19.5796,258.3562,101.7301,-4.736e-05,-6.58e-06,0.0,0 STARLINK-3060,1 49155U 21082AB  24036.16303993 -.00000658  00000-0 -47360-4 0  9991,2 49155  70.0010  19.5796 0002646 258.3562 101.7301 14.98318598133679,6950.228,96.108,573.932,570.254,0.0
49155.0,STARLINK-3060,PAYLOAD,2024-02-05 08:43:10,14.98319662,0.0002667,70.0011,19.0755,260.7646,99.3212,-3.5661e-05,-5.18e-06,0.0,0 STARLINK-3060,1 49155U 21082AB  24036.36332048 -.00000518  00000-0 -35661-4 0  9992,2 49155  70.0011  19.0755 0002667 260.7646  99.3212 14.98319662133703,6950.225,96.108,573.943,570.236,0.0
49155.0,STARLINK-3060,PAYLOAD,2024-02-06 03:56:46,14.98335841,0.0002978,70.0004,17.054,264.2952,95.7868,9.3607e-05,1.024e-05,0.0,0 STARLINK-3060,1 49155U 21082AB  24037.16442677  .00001024  00000-0  93607-4 0  9996,2 49155  70.0004  17.0540 0002978 264.2952  95.7868 14.98335841133826,6950.175,96.107,574.11,569.97,0.0
49155.0,STARLINK-3060,PAYLOAD,2024-02-06 08:45:10,14.98342187,0.0002805,70.0009,16.5503,262.4554,97.6287,0.00012812,1.437e-05,0.0,0 STARLINK-3060,1 49155U 21082AB  24037.36470100  .00001437  00000-0  12812-3 0  9996,2 49155  70.0009  16.5503 0002805 262.4554  97.6287 14.98342187133851,6950.155,96.106,573.97,570.071,0.0
49155.0,STARLINK-3060,PAYLOAD,2024-02-07 03:58:47,14.98331827,0.0002813,70.001,14.5304,262.8327,97.2512,0.00014468,1.634e-05,0.0,0 STARLINK-3060,1 49155U 21082AB  24038.16582552  .00001634  00000-0  14468-3 0  9998,2 49155  70.0010  14.5304 0002813 262.8327  97.2512 14.98331827133970,6950.187,96.107,574.007,570.097,0.0
49155.0,STARLINK-3060,PAYLOAD,2024-02-07 08:47:11,14.98336018,0.0002762,70.0011,14.0256,262.1473,97.9373,0.00018358,2.098e-05,0.0,0 STARLINK-3060,1 49155U 21082AB  24038.36610148  .00002098  00000-0  18358-3 0  9990,2 49155  70.0011  14.0256 0002762 262.1473  97.9373 14.98336018134004,6950.174,96.107,573.959,570.12,0.0
49155.0,STARLINK-3060,PAYLOAD,2024-02-07 18:24:00,14.9832798,0.0003259,70.0021,13.0159,270.9998,89.0787,-2.3004e-05,-3.67e-06,0.0,0 STARLINK-3060,1 49155U 21082AB  24038.76667086 -.00000367  00000-0 -23004-4 0  9991,2 49155  70.0021  13.0159 0003259 270.9998  89.0787 14.98327980134062,6950.199,96.107,574.329,569.799,0.0
49155.0,STARLINK-3060,PAYLOAD,2024-02-08 08:49:12,14.98334048,0.0002792,70.0014,11.4998,263.3589,96.7253,-6.9397e-05,-9.21e-06,0.0,0 STARLINK-3060,1 49155U 21082AB  24039.36750789 -.00000921  00000-0 -69397-4 0  9992,2 49155  70.0014  11.4998 0002792 263.3589  96.7253 14.98334048134156,6950.18,96.107,573.986,570.105,0.0
49155.0,STARLINK-3060,PAYLOAD,2024-02-09 07:15:05,14.98335884,0.0002767,70.0013,9.1431,262.2099,97.8746,3.4752e-05,3.22e-06,0.0,0 STARLINK-3060,1 49155U 21082AB  24040.30214259  .00000322  00000-0  34752-4 0  9995,2 49155  70.0013   9.1431 0002767 262.2099  97.8746 14.98335884134290,6950.175,96.107,573.963,570.117,0.0
